[{"OBJECT_NAME":"BRITE-PL2 (HEWELIUSZ)","OBJECT_ID":"2014-049B","EPOCH":"2026-03-09T20:58:34.162464","MEAN_MOTION":14.94186201,"ECCENTRICITY":0.00154454,"INCLINATION":97.8982,"RA_OF_ASC_NODE":180.2053,"ARG_OF_PERICENTER":80.5248,"MEAN_ANOMALY":279.7716,"EPHEMERIS_TYPE":0,"CLASSIFICATION_TYPE":"U","NORAD_CAT_ID":40119,"ELEMENT_SET_NO":999,"REV_AT_EPOCH":62661,"BSTAR":0.00026097212,"MEAN_MOTION_DOT":2.742e-5,"MEAN_MOTION_DDOT":0},{"OBJECT_NAME":"STARLINK-35982","OBJECT_ID":"2025-280H","EPOCH":"2026-03-09T21:27:09.755424","MEAN_MOTION":14.98311944,"ECCENTRICITY":0.00028949,"INCLINATION":70.0018,"RA_OF_ASC_NODE":334.0542,"ARG_OF_PERICENTER":276.8858,"MEAN_ANOMALY":83.1972,"EPHEMERIS_TYPE":0,"CLASSIFICATION_TYPE":"U","NORAD_CAT_ID":66828,"ELEMENT_SET_NO":999,"REV_AT_EPOCH":1610,"BSTAR":0.00020800012,"MEAN_MOTION_DOT":2.389e-5,"MEAN_MOTION_DDOT":0}]
